[{"OBJECT_NAME":"STARLINK-36993","OBJECT_ID":"2026-039J","EPOCH":"2026-03-06T06:00:02.000160","MEAN_MOTION":15.95477487,"ECCENTRICITY":0.00014899,"INCLINATION":42.9976,"RA_OF_ASC_NODE":76.2004,"ARG_OF_PERICENTER":268.8759,"MEAN_ANOMALY":250.6175,"EPHEMERIS_TYPE":0,"CLASSIFICATION_TYPE":"U","NORAD_CAT_ID":67994,"ELEMENT_SET_NO":999,"REV_AT_EPOCH":232,"BSTAR":-0.0035893141,"MEAN_MOTION_DOT":-0.01480647,"MEAN_MOTION_DDOT":0.00064128127},{"OBJECT_NAME":"STARLINK-36968","OBJECT_ID":"2026-039K","EPOCH":"2026-03-06T06:00:02.000160","MEAN_MOTION":15.95752504,"ECCENTRICITY":0.00015331,"INCLINATION":42.9976,"RA_OF_ASC_NODE":76.1863,"ARG_OF_PERICENTER":273.9313,"MEAN_ANOMALY":251.0122,"EPHEMERIS_TYPE":0,"CLASSIFICATION_TYPE":"U","NORAD_CAT_ID":67995,"ELEMENT_SET_NO":999,"REV_AT_EPOCH":232,"BSTAR":-0.0035623951,"MEAN_MOTION_DOT":-0.01491534,"MEAN_MOTION_DDOT":0.00065178409},{"OBJECT_NAME":"STARLINK-36979","OBJECT_ID":"2026-039L","EPOCH":"2026-03-06T06:00:02.000160","MEAN_MOTION":15.9561553,"ECCENTRICITY":0.00015227,"INCLINATION":42.9973,"RA_OF_ASC_NODE":76.1912,"ARG_OF_PERICENTER":270.4294,"MEAN_ANOMALY":252.5397,"EPHEMERIS_TYPE":0,"CLASSIFICATION_TYPE":"U","NORAD_CAT_ID":67996,"ELEMENT_SET_NO":999,"REV_AT_EPOCH":232,"BSTAR":-0.0036136026,"MEAN_MOTION_DOT":-0.01501621,"MEAN_MOTION_DDOT":0.00065898913},{"OBJECT_NAME":"STARLINK-36994","OBJECT_ID":"2026-039M","EPOCH":"2026-03-06T06:00:02.000160","MEAN_MOTION":15.96037119,"ECCENTRICITY":0.00015488,"INCLINATION":42.9975,"RA_OF_ASC_NODE":76.1751,"ARG_OF_PERICENTER":272.4161,"MEAN_ANOMALY":256.8586,"EPHEMERIS_TYPE":0,"CLASSIFICATION_TYPE":"U","NORAD_CAT_ID":67997,"ELEMENT_SET_NO":999,"REV_AT_EPOCH":232,"BSTAR":-0.0034876272,"MEAN_MOTION_DOT":-0.01483166,"MEAN_MOTION_DDOT":0.00064695525},{"OBJECT_NAME":"STARLINK-36988","OBJECT_ID":"2026-039N","EPOCH":"2026-03-06T06:00:02.000160","MEAN_MOTION":15.95902739,"ECCENTRICITY":0.00016272,"INCLINATION":42.9977,"RA_OF_ASC_NODE":76.1804,"ARG_OF_PERICENTER":268.5852,"MEAN_ANOMALY":258.6871,"EPHEMERIS_TYPE":0,"CLASSIFICATION_TYPE":"U","NORAD_CAT_ID":67998,"ELEMENT_SET_NO":999,"REV_AT_EPOCH":232,"BSTAR":-0.0035466653,"MEAN_MOTION_DOT":-0.01497102,"MEAN_MOTION_DDOT":0.00065726623},{"OBJECT_NAME":"STARLINK-36926","OBJECT_ID":"2026-039P","EPOCH":"2026-03-06T06:00:02.000160","MEAN_MOTION":15.96182419,"ECCENTRICITY":0.00016529,"INCLINATION":42.9976,"RA_OF_ASC_NODE":76.1702,"ARG_OF_PERICENTER":269.1381,"MEAN_ANOMALY":262.2335,"EPHEMERIS_TYPE":0,"CLASSIFICATION_TYPE":"U","NORAD_CAT_ID":67999,"ELEMENT_SET_NO":999,"REV_AT_EPOCH":232,"BSTAR":-0.0034614166,"MEAN_MOTION_DOT":-0.01483774,"MEAN_MOTION_DDOT":0.00064840397},{"OBJECT_NAME":"STARLINK-36931","OBJECT_ID":"2026-039Q","EPOCH":"2026-03-06T06:00:02.000160","MEAN_MOTION":15.96308657,"ECCENTRICITY":0.00016278,"INCLINATION":42.9977,"RA_OF_ASC_NODE":76.166,"ARG_OF_PERICENTER":269.5445,"MEAN_ANOMALY":263.4816,"EPHEMERIS_TYPE":0,"CLASSIFICATION_TYPE":"U","NORAD_CAT_ID":68000,"ELEMENT_SET_NO":999,"REV_AT_EPOCH":232,"BSTAR":-0.0034226387,"MEAN_MOTION_DOT":-0.01477397,"MEAN_MOTION_DDOT":0.00064412602},{"OBJECT_NAME":"STARLINK-36903","OBJECT_ID":"2026-039R","EPOCH":"2026-03-06T06:00:02.000160","MEAN_MOTION":15.96448984,"ECCENTRICITY":0.00015106,"INCLINATION":42.9978,"RA_OF_ASC_NODE":76.1607,"ARG_OF_PERICENTER":269.227,"MEAN_ANOMALY":265.9555,"EPHEMERIS_TYPE":0,"CLASSIFICATION_TYPE":"U","NORAD_CAT_ID":68001,"ELEMENT_SET_NO":999,"REV_AT_EPOCH":232,"BSTAR":-0.0033830761,"MEAN_MOTION_DOT":-0.01471641,"MEAN_MOTION_DDOT":0.00064044479},{"OBJECT_NAME":"STARLINK-36898","OBJECT_ID":"2026-039S","EPOCH":"2026-03-06T06:00:02.000160","MEAN_MOTION":15.96724232,"ECCENTRICITY":0.00015815,"INCLINATION":42.9977,"RA_OF_ASC_NODE":76.15,"ARG_OF_PERICENTER":269.3286,"MEAN_ANOMALY":269.9077,"EPHEMERIS_TYPE":0,"CLASSIFICATION_TYPE":"U","NORAD_CAT_ID":68002,"ELEMENT_SET_NO":999,"REV_AT_EPOCH":232,"BSTAR":-0.0033342746,"MEAN_MOTION_DOT":-0.0147253,"MEAN_MOTION_DDOT":0.00064297197},{"OBJECT_NAME":"STARLINK-36862","OBJECT_ID":"2026-039T","EPOCH":"2026-03-06T06:00:02.000160","MEAN_MOTION":15.96984525,"ECCENTRICITY":0.00015347,"INCLINATION":42.9979,"RA_OF_ASC_NODE":76.1405,"ARG_OF_PERICENTER":269.9631,"MEAN_ANOMALY":273.0237,"EPHEMERIS_TYPE":0,"CLASSIFICATION_TYPE":"U","NORAD_CAT_ID":68003,"ELEMENT_SET_NO":999,"REV_AT_EPOCH":232,"BSTAR":-0.0032629624,"MEAN_MOTION_DOT":-0.01461991,"MEAN_MOTION_DDOT":0.00063625142},{"OBJECT_NAME":"STARLINK-36888","OBJECT_ID":"2026-039U","EPOCH":"2026-03-06T06:00:02.000160","MEAN_MOTION":15.96579125,"ECCENTRICITY":0.00014819,"INCLINATION":42.9979,"RA_OF_ASC_NODE":76.1558,"ARG_OF_PERICENTER":268.7456,"MEAN_ANOMALY":268.4022,"EPHEMERIS_TYPE":0,"CLASSIFICATION_TYPE":"U","NORAD_CAT_ID":68004,"ELEMENT_SET_NO":999,"REV_AT_EPOCH":232,"BSTAR":-0.0033454073,"MEAN_MOTION_DOT":-0.01465759,"MEAN_MOTION_DDOT":0.0006366022},{"OBJECT_NAME":"STARLINK-36910","OBJECT_ID":"2026-039V","EPOCH":"2026-03-06T06:00:02.000160","MEAN_MOTION":15.96856726,"ECCENTRICITY":0.00015348,"INCLINATION":42.9977,"RA_OF_ASC_NODE":76.145,"ARG_OF_PERICENTER":271.4772,"MEAN_ANOMALY":269.7552,"EPHEMERIS_TYPE":0,"CLASSIFICATION_TYPE":"U","NORAD_CAT_ID":68005,"ELEMENT_SET_NO":999,"REV_AT_EPOCH":232,"BSTAR":-0.0032930226,"MEAN_MOTION_DOT":-0.0146505,"MEAN_MOTION_DDOT":0.00063785631},{"OBJECT_NAME":"STARLINK-36889","OBJECT_ID":"2026-039W","EPOCH":"2026-03-06T06:00:02.000160","MEAN_MOTION":15.97115209,"ECCENTRICITY":0.0001479,"INCLINATION":42.9977,"RA_OF_ASC_NODE":76.1355,"ARG_OF_PERICENTER":273.4809,"MEAN_ANOMALY":271.3597,"EPHEMERIS_TYPE":0,"CLASSIFICATION_TYPE":"U","NORAD_CAT_ID":68006,"ELEMENT_SET_NO":999,"REV_AT_EPOCH":232,"BSTAR":-0.0032249733,"MEAN_MOTION_DOT":-0.01455514,"MEAN_MOTION_DDOT":0.00063193773},{"OBJECT_NAME":"STARLINK-36592","OBJECT_ID":"2026-039X","EPOCH":"2026-03-06T06:00:02.000160","MEAN_MOTION":15.97249175,"ECCENTRICITY":0.00015315,"INCLINATION":42.9977,"RA_OF_ASC_NODE":76.1314,"ARG_OF_PERICENTER":267.6539,"MEAN_ANOMALY":279.0257,"EPHEMERIS_TYPE":0,"CLASSIFICATION_TYPE":"U","NORAD_CAT_ID":68007,"ELEMENT_SET_NO":999,"REV_AT_EPOCH":232,"BSTAR":-0.0032020352,"MEAN_MOTION_DOT":-0.0145593,"MEAN_MOTION_DDOT":0.00063314835},{"OBJECT_NAME":"STARLINK-36911","OBJECT_ID":"2026-039Y","EPOCH":"2026-03-06T06:00:02.000160","MEAN_MOTION":15.97379282,"ECCENTRICITY":0.00015704,"INCLINATION":42.9978,"RA_OF_ASC_NODE":76.1264,"ARG_OF_PERICENTER":267.0553,"MEAN_ANOMALY":281.5881,"EPHEMERIS_TYPE":0,"CLASSIFICATION_TYPE":"U","NORAD_CAT_ID":68008,"ELEMENT_SET_NO":999,"REV_AT_EPOCH":232,"BSTAR":-0.0031608141,"MEAN_MOTION_DOT":-0.01447708,"MEAN_MOTION_DDOT":0.00062744512},{"OBJECT_NAME":"STARLINK-36956","OBJECT_ID":"2026-039Z","EPOCH":"2026-03-06T06:00:02.000160","MEAN_MOTION":15.97507948,"ECCENTRICITY":0.00014235,"INCLINATION":42.9975,"RA_OF_ASC_NODE":76.1215,"ARG_OF_PERICENTER":275.2546,"MEAN_ANOMALY":275.246,"EPHEMERIS_TYPE":0,"CLASSIFICATION_TYPE":"U","NORAD_CAT_ID":68009,"ELEMENT_SET_NO":999,"REV_AT_EPOCH":232,"BSTAR":-0.0031238731,"MEAN_MOTION_DOT":-0.01441099,"MEAN_MOTION_DDOT":0.00062302785}]
